{
    "links": {
        "self": "http://www.neowsapp.com/rest/v1/neo/3435552?api_key=iIulBulltgU6a56xZRHN4H3l9WmuAYTsLGpBGhQ2"
    },
    "id": "3435552",
    "neo_reference_id": "3435552",
    "name": "(2008 VM)",
    "designation": "2008 VM",
    "nasa_jpl_url": "http://ssd.jpl.nasa.gov/sbdb.cgi?sstr=3435552",
    "absolute_magnitude_h": 30.2,
    "estimated_diameter": {
        "kilometers": {
            "estimated_diameter_min": 0.0024241248,
            "estimated_diameter_max": 0.0054205079
        },
        "meters": {
            "estimated_diameter_min": 2.424124811,
            "estimated_diameter_max": 5.4205078634
        },
        "miles": {
            "estimated_diameter_min": 0.0015062809,
            "estimated_diameter_max": 0.0033681464
        },
        "feet": {
            "estimated_diameter_min": 7.9531656449,
            "estimated_diameter_max": 17.7838190184
        }
    },
    "is_potentially_hazardous_asteroid": false,
    "close_approach_data": [
        {
            "close_approach_date": "2008-11-03",
            "close_approach_date_full": "2008-Nov-03 22:31",
            "epoch_date_close_approach": 1225751460000,
            "relative_velocity": {
                "kilometers_per_second": "11.0414646994",
                "kilometers_per_hour": "39749.2729177856",
                "miles_per_hour": "24698.6523860541"
            },
            "miss_distance": {
                "astronomical": "0.0003090283",
                "lunar": "0.1202120087",
                "kilometers": "46229.975449721",
                "miles": "28725.9747033098"
            },
            "orbiting_body": "Earth"
        },
        {
            "close_approach_date": "2008-11-04",
            "close_approach_date_full": "2008-Nov-04 00:03",
            "epoch_date_close_approach": 1225756980000,
            "relative_velocity": {
                "kilometers_per_second": "11.615870655",
                "kilometers_per_hour": "41817.1343581433",
                "miles_per_hour": "25983.5410682585"
            },
            "miss_distance": {
                "astronomical": "0.0025301067",
                "lunar": "0.9842115063",
                "kilometers": "378498.573192729",
                "miles": "235188.1075645002"
            },
            "orbiting_body": "Moon"
        }
    ],
    "orbital_data": {
        "orbit_id": "6",
        "orbit_determination_date": "2017-04-06 09:02:17",
        "first_observation_date": "2008-11-03",
        "last_observation_date": "2008-11-03",
        "data_arc_in_days": null,
        "observations_used": 18,
        "orbit_uncertainty": "9",
        "minimum_orbit_intersection": ".000312716",
        "jupiter_tisserand_invariant": "4.828",
        "epoch_osculation": "2454773.5",
        "eccentricity": ".3927650913013643",
        "semi_major_axis": "1.334394687981559",
        "inclination": "4.088569220436611",
        "ascending_node_longitude": "42.01155018078764",
        "orbital_period": "563.021375589651",
        "perihelion_distance": ".8102910365244266",
        "perihelion_argument": "69.17059125056484",
        "aphelion_distance": "1.858498339438692",
        "perihelion_time": "2454824.702274415797",
        "mean_anomaly": "327.2608899255694",
        "mean_motion": ".6394073397710217",
        "equinox": "J2000",
        "orbit_class": {
            "orbit_class_type": "APO",
            "orbit_class_description": "Near-Earth asteroid orbits which cross the Earth’s orbit similar to that of 1862 Apollo",
            "orbit_class_range": "a (semi-major axis) > 1.0 AU; q (perihelion) < 1.017 AU"
        }
    },
    "is_sentry_object": false
}